{
    "links": {
        "self": "http://www.neowsapp.com/rest/v1/neo/3893858?api_key=iIulBulltgU6a56xZRHN4H3l9WmuAYTsLGpBGhQ2"
    },
    "id": "3893858",
    "neo_reference_id": "3893858",
    "name": "(2019 XN)",
    "designation": "2019 XN",
    "nasa_jpl_url": "http://ssd.jpl.nasa.gov/sbdb.cgi?sstr=3893858",
    "absolute_magnitude_h": 27.7,
    "estimated_diameter": {
        "kilometers": {
            "estimated_diameter_min": 0.0076657557,
            "estimated_diameter_max": 0.0171411509
        },
        "meters": {
            "estimated_diameter_min": 7.6657557353,
            "estimated_diameter_max": 17.1411509231
        },
        "miles": {
            "estimated_diameter_min": 0.0047632783,
            "estimated_diameter_max": 0.0106510141
        },
        "feet": {
            "estimated_diameter_min": 25.1501180466,
            "estimated_diameter_max": 56.2373735944
        }
    },
    "is_potentially_hazardous_asteroid": false,
    "close_approach_data": [
        {
            "close_approach_date": "2003-11-03",
            "close_approach_date_full": "2003-Nov-03 21:11",
            "epoch_date_close_approach": 1067893860000,
            "relative_velocity": {
                "kilometers_per_second": "17.2366885575",
                "kilometers_per_hour": "62052.0788069359",
                "miles_per_hour": "38556.7486342319"
            },
            "miss_distance": {
                "astronomical": "0.0554167065",
                "lunar": "21.5570988285",
                "kilometers": "8290221.254815155",
                "miles": "5151304.618572939"
            },
            "orbiting_body": "Mars"
        },
        {
            "close_approach_date": "2008-01-31",
            "close_approach_date_full": "2008-Jan-31 21:23",
            "epoch_date_close_approach": 1201814580000,
            "relative_velocity": {
                "kilometers_per_second": "10.1883917335",
                "kilometers_per_hour": "36678.2102406587",
                "miles_per_hour": "22790.4134687026"
            },
            "miss_distance": {
                "astronomical": "0.0193890232",
                "lunar": "7.5423300248",
                "kilometers": "2900556.572100584",
                "miles": "1802322.2791086992"
            },
            "orbiting_body": "Earth"
        },
        {
            "close_approach_date": "2019-12-06",
            "close_approach_date_full": "2019-Dec-06 03:29",
            "epoch_date_close_approach": 1575602940000,
            "relative_velocity": {
                "kilometers_per_second": "10.1377567105",
                "kilometers_per_hour": "36495.9241579242",
                "miles_per_hour": "22677.1479857946"
            },
            "miss_distance": {
                "astronomical": "0.0072489845",
                "lunar": "2.8198549705",
                "kilometers": "1084432.640863015",
                "miles": "673835.196879007"
            },
            "orbiting_body": "Moon"
        },
        {
            "close_approach_date": "2019-12-06",
            "close_approach_date_full": "2019-Dec-06 11:45",
            "epoch_date_close_approach": 1575632700000,
            "relative_velocity": {
                "kilometers_per_second": "9.7335203042",
                "kilometers_per_hour": "35040.6730952478",
                "miles_per_hour": "21772.9115685444"
            },
            "miss_distance": {
                "astronomical": "0.0062349939",
                "lunar": "2.4254126271",
                "kilometers": "932741.806902993",
                "miles": "579578.8833795834"
            },
            "orbiting_body": "Earth"
        },
        {
            "close_approach_date": "2023-10-30",
            "close_approach_date_full": "2023-Oct-30 19:19",
            "epoch_date_close_approach": 1698693540000,
            "relative_velocity": {
                "kilometers_per_second": "22.2460537764",
                "kilometers_per_hour": "80085.7935952132",
                "miles_per_hour": "49762.1976925368"
            },
            "miss_distance": {
                "astronomical": "0.4075829684",
                "lunar": "158.5497747076",
                "kilometers": "60973543.920917308",
                "miles": "37887203.3394945304"
            },
            "orbiting_body": "Earth"
        }
    ],
    "orbital_data": {
        "orbit_id": "8",
        "orbit_determination_date": "2020-01-08 06:22:38",
        "first_observation_date": "2019-12-03",
        "last_observation_date": "2019-12-06",
        "data_arc_in_days": 3,
        "observations_used": 67,
        "orbit_uncertainty": "7",
        "minimum_orbit_intersection": ".0036741",
        "jupiter_tisserand_invariant": "3.174",
        "epoch_osculation": "2459000.5",
        "eccentricity": ".6195467839804655",
        "semi_major_axis": "2.491982676974009",
        "inclination": ".329728753395106",
        "ascending_node_longitude": "35.52519699458303",
        "orbital_period": "1436.864964457732",
        "perihelion_distance": ".9480828237197306",
        "perihelion_argument": "65.36937994805815",
        "aphelion_distance": "4.035882530228288",
        "perihelion_time": "2458844.363180800162",
        "mean_anomaly": "39.11937189807884",
        "mean_motion": ".2505454645390862",
        "equinox": "J2000",
        "orbit_class": {
            "orbit_class_type": "APO",
            "orbit_class_description": "Near-Earth asteroid orbits which cross the Earth’s orbit similar to that of 1862 Apollo",
            "orbit_class_range": "a (semi-major axis) > 1.0 AU; q (perihelion) < 1.017 AU"
        }
    },
    "is_sentry_object": false
}